NORAD_CAT_ID,OBJECT_NAME,OBJECT_TYPE,EPOCH,MEAN_MOTION,ECCENTRICITY,INCLINATION,RA_OF_ASC_NODE,ARG_OF_PERICENTER,MEAN_ANOMALY,BSTAR,MEAN_MOTION_DOT,MEAN_MOTION_DDOT,TLE_LINE0,TLE_LINE1,TLE_LINE2,SEMIMAJOR_AXIS,PERIOD,APOGEE,PERIGEE,DECAYED
53147.0,STARLINK-4094,PAYLOAD,2023-10-10 16:53:28,15.08839536,0.0001623,53.2168,169.0202,103.8816,256.2356,0.00011083,1.476e-05,0.0,0 STARLINK-4094,1 53147U 22083R   23283.70379797  .00001476  00000-0  11083-3 0  9996,2 53147  53.2168 169.0202 0001623 103.8816 256.2356 15.08839536 68850,6917.882,95.438,540.87,538.624,0.0
53147.0,STARLINK-4094,PAYLOAD,2023-10-10 21:39:37,15.08840923,0.0001601,53.217,168.1283,105.1842,254.9328,0.00010816,1.434e-05,0.0,0 STARLINK-4094,1 53147U 22083R   23283.90251766  .00001434  00000-0  10816-3 0  9990,2 53147  53.2170 168.1283 0001601 105.1842 254.9328 15.08840923 68904,6917.878,95.437,540.85,538.635,0.0
53147.0,STARLINK-4094,PAYLOAD,2023-10-11 11:58:05,15.08836567,0.0001413,53.2165,165.4547,96.1951,263.9202,2.0915e-05,4.5e-07,0.0,0 STARLINK-4094,1 53147U 22083R   23284.49867946  .00000045  00000-0  20915-4 0  9997,2 53147  53.2165 165.4547 0001413  96.1951 263.9202 15.08836567 68991,6917.891,95.438,540.733,538.778,0.0
53147.0,STARLINK-4094,PAYLOAD,2023-10-11 23:05:47,15.08842627,0.0001508,53.2154,163.3714,99.6944,260.4218,0.00015861,2.237e-05,0.0,0 STARLINK-4094,1 53147U 22083R   23284.96235904  .00002237  00000-0  15861-3 0  9990,2 53147  53.2154 163.3714 0001508  99.6944 260.4218 15.08842627 69047,6917.872,95.437,540.781,538.694,0.0
53147.0,STARLINK-4094,PAYLOAD,2023-10-12 11:48:53,15.08841074,0.0001495,53.2152,160.993,94.6087,265.5076,0.00014161,1.967e-05,0.0,0 STARLINK-4094,1 53147U 22083R   23285.49228158  .00001967  00000-0  14161-3 0  9993,2 53147  53.2152 160.9930 0001495  94.6087 265.5076 15.08841074 69140,6917.877,95.437,540.776,538.708,0.0
53147.0,STARLINK-4094,PAYLOAD,2023-10-12 21:21:11,15.08847535,0.0001475,53.2154,159.2097,99.294,260.8219,0.00023242,3.414e-05,0.0,0 STARLINK-4094,1 53147U 22083R   23285.88971848  .00003414  00000-0  23242-3 0  9996,2 53147  53.2154 159.2097 0001475  99.2940 260.8219 15.08847535 69206,6917.857,95.437,540.743,538.702,0.0
53147.0,STARLINK-4094,PAYLOAD,2023-10-13 08:28:53,15.08849814,0.0001321,53.2162,157.1277,90.614,269.5004,0.00021653,3.161e-05,0.0,0 STARLINK-4094,1 53147U 22083R   23286.35339536  .00003161  00000-0  21653-3 0  9994,2 53147  53.2162 157.1277 0001321  90.6140 269.5004 15.08849814 69254,6917.85,95.437,540.629,538.802,0.0
53147.0,STARLINK-4094,PAYLOAD,2023-10-13 18:01:12,15.08833432,0.0001572,53.2153,155.3438,88.0947,272.0225,-5.2211e-05,-1.119e-05,0.0,0 STARLINK-4094,1 53147U 22083R   23286.75084252 -.00001119  00000-0 -52211-4 0  9998,2 53147  53.2153 155.3438 0001572  88.0947 272.0225 15.08833432 69317,6917.9,95.438,540.853,538.678,0.0
53147.0,STARLINK-4094,PAYLOAD,2023-10-13 21:11:58,15.08836539,0.0001083,53.2162,154.7495,94.8225,265.2891,3.4202e-05,2.57e-06,0.0,0 STARLINK-4094,1 53147U 22083R   23286.88332103  .00000257  00000-0  34202-4 0  9993,2 53147  53.2162 154.7495 0001083  94.8225 265.2891 15.08836539 69352,6917.891,95.438,540.505,539.007,0.0
53147.0,STARLINK-4094,PAYLOAD,2023-10-14 00:22:44,15.0884888,0.000168,53.2154,154.1505,86.0191,274.0993,0.00015973,2.256e-05,0.0,0 STARLINK-4094,1 53147U 22083R   23287.01579655  .00002256  00000-0  15973-3 0  9998,2 53147  53.2154 154.1505 0001680  86.0191 274.0993 15.08848880 69350,6917.853,95.437,540.88,538.556,0.0
53147.0,STARLINK-4094,PAYLOAD,2023-10-14 21:02:46,15.08838863,0.0001502,53.2151,150.2875,98.9272,261.1891,4.1937e-05,3.79e-06,0.0,0 STARLINK-4094,1 53147U 22083R   23287.87692376  .00000379  00000-0  41937-4 0  9992,2 53147  53.2151 150.2875 0001502  98.9272 261.1891 15.08838863 69487,6917.884,95.438,540.788,538.71,0.0
53147.0,STARLINK-4094,PAYLOAD,2023-10-15 14:32:01,15.08832429,0.0001288,53.2171,147.0159,90.5892,269.5248,0.00011349,1.518e-05,0.0,0 STARLINK-4094,1 53147U 22083R   23288.60556953  .00001518  00000-0  11349-3 0  9993,2 53147  53.2171 147.0159 0001288  90.5892 269.5248 15.08832429 69610,6917.904,95.438,540.66,538.878,0.0
53147.0,STARLINK-4094,PAYLOAD,2023-10-15 20:53:33,15.08842845,0.0001443,53.2154,145.8265,91.6801,268.4356,0.00011863,1.601e-05,0.0,0 STARLINK-4094,1 53147U 22083R   23288.87052472  .00001601  00000-0  11863-3 0  9993,2 53147  53.2154 145.8265 0001443  91.6801 268.4356 15.08842845 69655,6917.872,95.437,540.735,538.738,0.0
53147.0,STARLINK-4094,PAYLOAD,2023-10-16 08:01:15,15.08846179,0.0001394,53.2153,143.7449,90.4041,269.7111,0.00016192,2.29e-05,0.0,0 STARLINK-4094,1 53147U 22083R   23289.33420336  .00002290  00000-0  16192-3 0  9998,2 53147  53.2153 143.7449 0001394  90.4041 269.7111 15.08846179 69706,6917.862,95.437,540.691,538.762,0.0
53147.0,STARLINK-4094,PAYLOAD,2023-10-16 14:22:47,15.08843078,0.0001519,53.2151,142.5557,92.1977,267.9189,0.0001638,2.32e-05,0.0,0 STARLINK-4094,1 53147U 22083R   23289.59916595  .00002320  00000-0  16380-3 0  9996,2 53147  53.2151 142.5557 0001519  92.1977 267.9189 15.08843078 69763,6917.871,95.437,540.787,538.685,0.0
53147.0,STARLINK-4094,PAYLOAD,2023-10-16 17:33:34,15.0884522,0.0001517,53.215,141.9612,91.4615,268.6551,0.00018602,2.674e-05,0.0,0 STARLINK-4094,1 53147U 22083R   23289.73164473  .00002674  00000-0  18602-3 0  9993,2 53147  53.2150 141.9612 0001517  91.4615 268.6551 15.08845220 69780,6917.864,95.437,540.779,538.68,0.0
53147.0,STARLINK-4094,PAYLOAD,2023-10-17 20:35:07,15.08843476,0.0001215,53.2169,136.905,89.1377,270.9754,0.00017406,2.484e-05,0.0,0 STARLINK-4094,1 53147U 22083R   23290.85772320  .00002484  00000-0  17406-3 0  9994,2 53147  53.2169 136.9050 0001215  89.1377 270.9754 15.08843476 69933,6917.87,95.437,540.575,538.894,0.0
53147.0,STARLINK-4094,PAYLOAD,2023-10-17 23:45:53,15.08847391,0.0001348,53.2159,136.311,89.1543,270.9603,0.00010678,1.412e-05,0.0,0 STARLINK-4094,1 53147U 22083R   23290.99020112  .00001412  00000-0  10678-3 0  9998,2 53147  53.2159 136.3110 0001348  89.1543 270.9603 15.08847391 69972,6917.858,95.437,540.655,538.79,0.0
53147.0,STARLINK-4094,PAYLOAD,2023-10-18 20:25:54,15.08840983,0.0001133,53.2177,132.4427,94.5269,265.5852,9.7341e-05,1.262e-05,0.0,0 STARLINK-4094,1 53147U 22083R   23291.85132463  .00001262  00000-0  97341-4 0  9993,2 53147  53.2177 132.4427 0001133  94.5269 265.5852 15.08840983 70087,6917.877,95.437,540.526,538.959,0.0
53147.0,STARLINK-4094,PAYLOAD,2023-10-19 13:55:08,15.08847083,0.0001359,53.2151,129.174,93.2284,266.8863,6.6652e-05,7.73e-06,0.0,0 STARLINK-4094,1 53147U 22083R   23292.57996142  .00000773  00000-0  66652-4 0  9992,2 53147  53.2151 129.1740 0001359  93.2284 266.8863 15.08847083 70212,6917.859,95.437,540.664,538.784,0.0
53147.0,STARLINK-4094,PAYLOAD,2023-10-19 20:16:40,15.08851474,0.0001467,53.2132,127.9852,94.6348,265.4811,0.00010323,1.356e-05,0.0,0 STARLINK-4094,1 53147U 22083R   23292.84491636  .00001356  00000-0  10323-3 0  9991,2 53147  53.2132 127.9852 0001467  94.6348 265.4811 15.08851474 70236,6917.845,95.437,540.725,538.695,0.0
53147.0,STARLINK-4094,PAYLOAD,2023-10-20 12:10:33,15.08826171,0.0001425,53.2147,125.0103,93.8365,266.279,-0.00010155,-1.903e-05,0.0,0 STARLINK-4094,1 53147U 22083R   23293.50733035 -.00001903  00000-0 -10155-3 0  9990,2 53147  53.2147 125.0103 0001425  93.8365 266.2790 15.08826171 70336,6917.923,95.438,540.773,538.802,0.0
53147.0,STARLINK-4094,PAYLOAD,2023-10-20 13:45:56,15.08828938,0.0001512,53.2142,124.7136,92.8864,267.2301,-0.00010525,-1.962e-05,0.0,0 STARLINK-4094,1 53147U 22083R   23293.57356965 -.00001962  00000-0 -10525-3 0  9996,2 53147  53.2142 124.7136 0001512  92.8864 267.2301 15.08828938 70368,6917.914,95.438,540.825,538.733,0.0
53147.0,STARLINK-4094,PAYLOAD,2023-10-20 21:42:51,15.08833492,0.0001395,53.2157,123.2264,91.5139,268.6013,-2.8895e-05,-7.48e-06,0.0,0 STARLINK-4094,1 53147U 22083R   23293.90476790 -.00000748  00000-0 -28895-4 0  9993,2 53147  53.2157 123.2264 0001395  91.5139 268.6013 15.08833492 70412,6917.9,95.438,540.73,538.8,0.0
53147.0,STARLINK-4094,PAYLOAD,2023-10-20 23:18:15,15.08834563,0.0001402,53.2156,122.9292,91.4351,268.6801,1.1231e-05,-1.09e-06,0.0,0 STARLINK-4094,1 53147U 22083R   23293.97100822 -.00000109  00000-0  11231-4 0  9996,2 53147  53.2156 122.9292 0001402  91.4351 268.6801 15.08834563 70406,6917.897,95.438,540.732,538.792,0.0
53147.0,STARLINK-4094,PAYLOAD,2023-10-21 05:39:47,15.08838194,0.0001442,53.2158,121.7399,92.3376,267.7781,0.00019145,2.76e-05,0.0,0 STARLINK-4094,1 53147U 22083R   23294.23596839  .00002760  00000-0  19145-3 0  9998,2 53147  53.2158 121.7399 0001442  92.3376 267.7781 15.08838194 70461,6917.886,95.438,540.748,538.753,0.0
53147.0,STARLINK-4094,PAYLOAD,2023-10-21 21:33:38,15.08850812,0.0001388,53.2155,118.7662,92.4147,267.7004,0.00067938,0.00010544,0.0,0 STARLINK-4094,1 53147U 22083R   23294.89836758  .00010544  00000-0  67938-3 0  9999,2 53147  53.2155 118.7662 0001388  92.4147 267.7004 15.08850812 70563,6917.847,95.437,540.673,538.752,0.0
53147.0,STARLINK-4094,PAYLOAD,2023-10-22 11:52:07,15.08840687,0.0002087,53.2155,116.0903,82.4538,277.6691,9.3006e-05,1.192e-05,0.0,0 STARLINK-4094,1 53147U 22083R   23295.49453205  .00001192  00000-0  93006-4 0  9993,2 53147  53.2155 116.0903 0002087  82.4538 277.6691 15.08840687 70631,6917.878,95.438,541.187,538.3,0.0
53147.0,STARLINK-4094,PAYLOAD,2023-10-22 19:49:03,15.08840165,0.0001441,53.2154,114.6032,86.2091,273.9066,0.00020768,3.019e-05,0.0,0 STARLINK-4094,1 53147U 22083R   23295.82573240  .00003019  00000-0  20768-3 0  9996,2 53147  53.2154 114.6032 0001441  86.2091 273.9066 15.08840165 70700,6917.88,95.438,540.742,538.748,0.0
53147.0,STARLINK-4094,PAYLOAD,2023-10-23 19:39:50,15.08853607,0.0001468,53.2155,110.1421,84.3888,275.7272,0.00056566,8.729e-05,0.0,0 STARLINK-4094,1 53147U 22083R   23296.81932890  .00008729  00000-0  56566-3 0  9994,2 53147  53.2155 110.1421 0001468  84.3888 275.7272 15.08853607 70834,6917.839,95.437,540.719,538.688,0.0
